[
    {
        "Altitude(m)": 705270.035896608,
        "Argument of Periapsis(deg)": 0.0022780242373254137,
        "Eccentricity": 0.0,
        "Inclination(deg)": 45.0,
        "Latitude(deg)": -10.002382200149908,
        "Longitude(deg)": 14.766577724073555,
        "Mean Anomaly(deg)": -14.056956670503968,
        "RAAN(deg)": 124.99784961170839,
        "Satellite Name": "Constellation 1 571",
        "Satellite Number": 571,
        "Semi-Major Axis(m)": 7083131.272910544,
        "Time(s)": 38
    },
    {
        "Altitude(m)": 705259.9976892782,
        "Argument of Periapsis(deg)": 0.002337972243570819,
        "Eccentricity": 0.0,
        "Inclination(deg)": 45.0,
        "Latitude(deg)": -9.959865052171825,
        "Longitude(deg)": 14.806625134669245,
        "Mean Anomaly(deg)": -13.996255530253993,
        "RAAN(deg)": 124.9977930225428,
        "Satellite Name": "Constellation 1 571",
        "Satellite Number": 571,
        "Semi-Major Axis(m)": 7083131.272910544,
        "Time(s)": 39
    },
    {
        "Altitude(m)": 705249.9762097826,
        "Argument of Periapsis(deg)": 0.0023979202498162246,
        "Eccentricity": 0.0,
        "Inclination(deg)": 45.0,
        "Latitude(deg)": -9.917341875556748,
        "Longitude(deg)": 14.846661212595068,
        "Mean Anomaly(deg)": -13.935554390004043,
        "RAAN(deg)": 124.99773643337724,
        "Satellite Name": "Constellation 1 571",
        "Satellite Number": 571,
        "Semi-Major Axis(m)": 7083131.272910544,
        "Time(s)": 40
    },
    {
        "Altitude(m)": 705239.9714850489,
        "Argument of Periapsis(deg)": 0.00245786825606163,
        "Eccentricity": 0.0,
        "Inclination(deg)": 45.0,
        "Latitude(deg)": -9.874812697635416,
        "Longitude(deg)": 14.886686008843835,
        "Mean Anomaly(deg)": -13.874853249754183,
        "RAAN(deg)": 124.99767984421166,
        "Satellite Name": "Constellation 1 571",
        "Satellite Number": 571,
        "Semi-Major Axis(m)": 7083131.272910544,
        "Time(s)": 41
    },
    {
        "Altitude(m)": 705229.9835419428,
        "Argument of Periapsis(deg)": 0.002517816262307036,
        "Eccentricity": 0.0,
        "Inclination(deg)": 45.0,
        "Latitude(deg)": -9.83227754571706,
        "Longitude(deg)": 14.92669957438584,
        "Mean Anomaly(deg)": -13.814152109504308,
        "RAAN(deg)": 124.9976232550461,
        "Satellite Name": "Constellation 1 571",
        "Satellite Number": 571,
        "Semi-Major Axis(m)": 7083131.272910544,
        "Time(s)": 42
    },
    {
        "Altitude(m)": 705220.0124072451,
        "Argument of Periapsis(deg)": 0.0025777642685524413,
        "Eccentricity": 0.0,
        "Inclination(deg)": 45.0,
        "Latitude(deg)": -9.78973644708974,
        "Longitude(deg)": 14.966701960168923,
        "Mean Anomaly(deg)": -13.753450969254358,
        "RAAN(deg)": 124.99756666588054,
        "Satellite Name": "Constellation 1 571",
        "Satellite Number": 571,
        "Semi-Major Axis(m)": 7083131.272910544,
        "Time(s)": 43
    },
    {
        "Altitude(m)": 705210.0581076499,
        "Argument of Periapsis(deg)": 0.002637712274797847,
        "Eccentricity": 0.0,
        "Inclination(deg)": 45.0,
        "Latitude(deg)": -9.747189429020793,
        "Longitude(deg)": 15.006693049021111,
        "Mean Anomaly(deg)": -13.692749829004486,
        "RAAN(deg)": 124.99751007671495,
        "Satellite Name": "Constellation 1 571",
        "Satellite Number": 571,
        "Semi-Major Axis(m)": 7083131.272910544,
        "Time(s)": 44
    },
    {
        "Altitude(m)": 705200.1206697845,
        "Argument of Periapsis(deg)": 0.0026976602810432526,
        "Eccentricity": 0.0,
        "Inclination(deg)": 45.0,
        "Latitude(deg)": -9.7046365187554,
        "Longitude(deg)": 15.046673228039564,
        "Mean Anomaly(deg)": -13.632048688754534,
        "RAAN(deg)": 124.9974534875494,
        "Satellite Name": "Constellation 1 571",
        "Satellite Number": 571,
        "Semi-Major Axis(m)": 7083131.272910544,
        "Time(s)": 45
    },
    {
        "Altitude(m)": 705190.2001201817,
        "Argument of Periapsis(deg)": 0.0027576082872886585,
        "Eccentricity": 0.0,
        "Inclination(deg)": 45.0,
        "Latitude(deg)": -9.662077743518937,
        "Longitude(deg)": 15.086642380007678,
        "Mean Anomaly(deg)": -13.571347548504686,
        "RAAN(deg)": 124.99739689838381,
        "Satellite Name": "Constellation 1 571",
        "Satellite Number": 571,
        "Semi-Major Axis(m)": 7083131.272910544,
        "Time(s)": 46
    },
    {
        "Altitude(m)": 705180.2964852982,
        "Argument of Periapsis(deg)": 0.0028175562935340644,
        "Eccentricity": 0.0,
        "Inclination(deg)": 45.0,
        "Latitude(deg)": -9.619513130515362,
        "Longitude(deg)": 15.126600555783996,
        "Mean Anomaly(deg)": -13.510646408254711,
        "RAAN(deg)": 124.99734030921825,
        "Satellite Name": "Constellation 1 571",
        "Satellite Number": 571,
        "Semi-Major Axis(m)": 7083131.272910544,
        "Time(s)": 47
    },
    {
        "Altitude(m)": 705170.4097915117,
        "Argument of Periapsis(deg)": 0.00287750429977947,
        "Eccentricity": 0.0,
        "Inclination(deg)": 45.0,
        "Latitude(deg)": -9.5769427069282,
        "Longitude(deg)": 15.166547806204655,
        "Mean Anomaly(deg)": -13.449945268004862,
        "RAAN(deg)": 124.99728372005266,
        "Satellite Name": "Constellation 1 571",
        "Satellite Number": 571,
        "Semi-Major Axis(m)": 7083131.272910544,
        "Time(s)": 48
    },
    {
        "Altitude(m)": 705160.5400651186,
        "Argument of Periapsis(deg)": 0.002937452306024875,
        "Eccentricity": 0.0,
        "Inclination(deg)": 45.0,
        "Latitude(deg)": -9.534366499920088,
        "Longitude(deg)": 15.206484182084017,
        "Mean Anomaly(deg)": -13.389244127755013,
        "RAAN(deg)": 124.99722713088711,
        "Satellite Name": "Constellation 1 571",
        "Satellite Number": 571,
        "Semi-Major Axis(m)": 7083131.272910544,
        "Time(s)": 49
    },
    {
        "Altitude(m)": 705150.6873323314,
        "Argument of Periapsis(deg)": 0.0029974003122702807,
        "Eccentricity": 0.0,
        "Inclination(deg)": 45.0,
        "Latitude(deg)": -9.491784536633164,
        "Longitude(deg)": 15.246409734214295,
        "Mean Anomaly(deg)": -13.328542987505129,
        "RAAN(deg)": 124.99717054172152,
        "Satellite Name": "Constellation 1 571",
        "Satellite Number": 571,
        "Semi-Major Axis(m)": 7083131.272910544,
        "Time(s)": 50
    },
    {
        "Altitude(m)": 705140.8516192837,
        "Argument of Periapsis(deg)": 0.0030573483185156866,
        "Eccentricity": 0.0,
        "Inclination(deg)": 45.0,
        "Latitude(deg)": -9.449196844189121,
        "Longitude(deg)": 15.286324513366006,
        "Mean Anomaly(deg)": -13.267841847255179,
        "RAAN(deg)": 124.99711395255596,
        "Satellite Name": "Constellation 1 571",
        "Satellite Number": 571,
        "Semi-Major Axis(m)": 7083131.272910544,
        "Time(s)": 51
    },
    {
        "Altitude(m)": 705131.0329520256,
        "Argument of Periapsis(deg)": 0.003117296324761092,
        "Eccentricity": 0.0,
        "Inclination(deg)": 45.0,
        "Latitude(deg)": -9.406603449689756,
        "Longitude(deg)": 15.32622840219056,
        "Mean Anomaly(deg)": -13.207140707005303,
        "RAAN(deg)": 124.9970573633904,
        "Satellite Name": "Constellation 1 571",
        "Satellite Number": 571,
        "Semi-Major Axis(m)": 7083131.272910544,
        "Time(s)": 52
    },
    {
        "Altitude(m)": 705121.2313565357,
        "Argument of Periapsis(deg)": 0.0031772443310064975,
        "Eccentricity": 0.0,
        "Inclination(deg)": 45.0,
        "Latitude(deg)": -9.364004380215457,
        "Longitude(deg)": 15.366121787609089,
        "Mean Anomaly(deg)": -13.146439566755353,
        "RAAN(deg)": 124.99700077422482,
        "Satellite Name": "Constellation 1 571",
        "Satellite Number": 571,
        "Semi-Major Axis(m)": 7083131.272910544,
        "Time(s)": 53
    },
    {
        "Altitude(m)": 705111.4468586865,
        "Argument of Periapsis(deg)": 0.0032371923372519038,
        "Eccentricity": 0.0,
        "Inclination(deg)": 45.0,
        "Latitude(deg)": -9.32139966282764,
        "Longitude(deg)": 15.406004552229671,
        "Mean Anomaly(deg)": -13.085738426505506,
        "RAAN(deg)": 124.99694418505926,
        "Satellite Name": "Constellation 1 571",
        "Satellite Number": 571,
        "Semi-Major Axis(m)": 7083131.272910544,
        "Time(s)": 54
    },
    {
        "Altitude(m)": 705101.6794842953,
        "Argument of Periapsis(deg)": 0.0032971403434973088,
        "Eccentricity": 0.0,
        "Inclination(deg)": 45.0,
        "Latitude(deg)": -9.278789324567079,
        "Longitude(deg)": 15.445876746736248,
        "Mean Anomaly(deg)": -13.025037286255529,
        "RAAN(deg)": 124.99688759589367,
        "Satellite Name": "Constellation 1 571",
        "Satellite Number": 571,
        "Semi-Major Axis(m)": 7083131.272910544,
        "Time(s)": 55
    },
    {
        "Altitude(m)": 705091.9292590858,
        "Argument of Periapsis(deg)": 0.0033570883497427146,
        "Eccentricity": 0.0,
        "Inclination(deg)": 45.0,
        "Latitude(deg)": -9.236173392454917,
        "Longitude(deg)": 15.485738421790868,
        "Mean Anomaly(deg)": -12.964336146005682,
        "RAAN(deg)": 124.99683100672812,
        "Satellite Name": "Constellation 1 571",
        "Satellite Number": 571,
        "Semi-Major Axis(m)": 7083131.272910544,
        "Time(s)": 56
    }
]